{
  "norad_id": 50827,
  "name": "STARLINK-3329",
  "history": [
    {
      "epoch": "2026-04-11T11:31:57.822240Z",
      "apogee_km": 540.8316706689302,
      "perigee_km": 538.7009564483551,
      "latitude_deg": 2.90639188265903e-05,
      "longitude_deg": 9.228985282285212,
      "height_km": 540.6655063774992,
      "semi_major_axis_km": 6917.903313558642,
      "eccentricity": 0.000154,
      "inclination_deg": 53.2205,
      "raan_deg": 21.9193,
      "arg_perigee_deg": 90.1837,
      "mean_anomaly_deg": 269.9332,
      "mean_motion_rev_day": 15.088325
    },
    {
      "epoch": "2026-04-13T03:16:36.614496Z",
      "apogee_km": 540.7432918174254,
      "perigee_km": 538.8354660806399,
      "latitude_deg": 3.226326085496134e-05,
      "longitude_deg": 123.99991946760895,
      "height_km": 540.6063851813097,
      "semi_major_axis_km": 6917.926378949032,
      "eccentricity": 0.00013789,
      "inclination_deg": 53.2194,
      "raan_deg": 14.4841,
      "arg_perigee_deg": 85.2565,
      "mean_anomaly_deg": 274.8585,
      "mean_motion_rev_day": 15.08824954
    },
    {
      "epoch": "2026-04-14T11:04:18.624288Z",
      "apogee_km": 540.7383970167766,
      "perigee_km": 538.6954164010467,
      "latitude_deg": 8.884795066856246e-07,
      "longitude_deg": -0.17761781664881887,
      "height_km": 540.5460059577464,
      "semi_major_axis_km": 6917.853906708911,
      "eccentricity": 0.00014766,
      "inclination_deg": 53.2194,
      "raan_deg": 8.5374,
      "arg_perigee_deg": 86.258,
      "mean_anomaly_deg": 273.8581,
      "mean_motion_rev_day": 15.08848664
    },
    {
      "epoch": "2026-04-15T20:27:24.522624Z",
      "apogee_km": 540.7532490270587,
      "perigee_km": 538.7484451289747,
      "latitude_deg": 4.501181310156295e-05,
      "longitude_deg": -148.56793096236143,
      "height_km": 540.8292054339545,
      "semi_major_axis_km": 6917.887847078016,
      "eccentricity": 0.0001449,
      "inclination_deg": 53.2176,
      "raan_deg": 2.2927,
      "arg_perigee_deg": 100.5034,
      "mean_anomaly_deg": 259.6122,
      "mean_motion_rev_day": 15.0883756
    },
    {
      "epoch": "2026-04-16T02:48:56.953440Z",
      "apogee_km": 539.9836633726827,
      "perigee_km": 539.5006570497162,
      "latitude_deg": -9.843098505315999e-06,
      "longitude_deg": 114.59464516866376,
      "height_km": 540.6533313180802,
      "semi_major_axis_km": 6917.879160211199,
      "eccentricity": 3.491e-05,
      "inclination_deg": 53.2211,
      "raan_deg": 1.1016,
      "arg_perigee_deg": 93.2612,
      "mean_anomaly_deg": 266.842,
      "mean_motion_rev_day": 15.08840402
    },
    {
      "epoch": "2026-04-17T21:44:21.771456Z",
      "apogee_km": 540.5832031552318,
      "perigee_km": 538.9183442836093,
      "latitude_deg": -1.4857929936582078e-06,
      "longitude_deg": -179.0491622948306,
      "height_km": 540.6583487251977,
      "semi_major_axis_km": 6917.887773719421,
      "eccentricity": 0.00012033,
      "inclination_deg": 53.2182,
      "raan_deg": 353.074,
      "arg_perigee_deg": 90.7963,
      "mean_anomaly_deg": 269.3167,
      "mean_motion_rev_day": 15.08837584
    },
    {
      "epoch": "2026-04-18T08:52:03.962784Z",
      "apogee_km": 540.7774179428488,
      "perigee_km": 538.7255722152076,
      "latitude_deg": 3.200753903630743e-05,
      "longitude_deg": 11.486838920811737,
      "height_km": 540.5139952453264,
      "semi_major_axis_km": 6917.888495079028,
      "eccentricity": 0.0001483,
      "inclination_deg": 53.2177,
      "raan_deg": 350.9928,
      "arg_perigee_deg": 82.5467,
      "mean_anomaly_deg": 277.5694,
      "mean_motion_rev_day": 15.08837348
    },
    {
      "epoch": "2026-04-19T19:50:33.542304Z",
      "apogee_km": 540.6444362077618,
      "perigee_km": 538.9038897591563,
      "latitude_deg": -4.2888715655459264e-05,
      "longitude_deg": -161.11803322370088,
      "height_km": 540.389748650063,
      "semi_major_axis_km": 6917.911162983459,
      "eccentricity": 0.0001258,
      "inclination_deg": 53.2183,
      "raan_deg": 344.4476,
      "arg_perigee_deg": 71.2002,
      "mean_anomaly_deg": 288.9126,
      "mean_motion_rev_day": 15.08829932
    },
    {
      "epoch": "2026-04-20T08:33:38.659680Z",
      "apogee_km": 540.6876203976444,
      "perigee_km": 538.8298886717221,
      "latitude_deg": 3.443213416161795e-05,
      "longitude_deg": 5.212387535957284,
      "height_km": 540.5862188086641,
      "semi_major_axis_km": 6917.895754534683,
      "eccentricity": 0.00013427,
      "inclination_deg": 53.2187,
      "raan_deg": 342.0716,
      "arg_perigee_deg": 85.7768,
      "mean_anomaly_deg": 274.3378,
      "mean_motion_rev_day": 15.08834973
    },
    {
      "epoch": "2026-04-21T21:07:30.251136Z",
      "apogee_km": 540.5794782310049,
      "perigee_km": 538.9039680042652,
      "latitude_deg": 2.408525406536771e-05,
      "longitude_deg": 168.40696800219567,
      "height_km": 540.5926691457569,
      "semi_major_axis_km": 6917.878723117635,
      "eccentricity": 0.0001211,
      "inclination_deg": 53.2183,
      "raan_deg": 335.2328,
      "arg_perigee_deg": 86.9167,
      "mean_anomaly_deg": 273.1964,
      "mean_motion_rev_day": 15.08840545
    },
    {
      "epoch": "2026-04-22T19:22:54.391872Z",
      "apogee_km": 540.5677364934209,
      "perigee_km": 538.9198972828372,
      "latitude_deg": -1.9436964328824748e-05,
      "longitude_deg": -170.52080345876792,
      "height_km": 540.5799297817468,
      "semi_major_axis_km": 6917.880816888129,
      "eccentricity": 0.0001191,
      "inclination_deg": 53.218,
      "raan_deg": 331.0697,
      "arg_perigee_deg": 85.831,
      "mean_anomaly_deg": 274.2818,
      "mean_motion_rev_day": 15.0883986
    },
    {
      "epoch": "2026-04-23T00:09:03.634848Z",
      "apogee_km": 540.540158330281,
      "perigee_km": 538.9258041914536,
      "latitude_deg": -6.13124186910219e-05,
      "longitude_deg": 116.85338704035975,
      "height_km": 540.5277380085881,
      "semi_major_axis_km": 6917.869981260867,
      "eccentricity": 0.00011668,
      "inclination_deg": 53.2178,
      "raan_deg": 330.1783,
      "arg_perigee_deg": 82.7917,
      "mean_anomaly_deg": 277.3207,
      "mean_motion_rev_day": 15.08843405
    },
    {
      "epoch": "2026-04-24T19:04:28.883136Z",
      "apogee_km": 540.5297517255567,
      "perigee_km": 539.0050455960918,
      "latitude_deg": -6.240576533833491e-05,
      "longitude_deg": -176.7957303576524,
      "height_km": 540.4831125928822,
      "semi_major_axis_km": 6917.904398660824,
      "eccentricity": 0.0001102,
      "inclination_deg": 53.2173,
      "raan_deg": 322.1472,
      "arg_perigee_deg": 76.313,
      "mean_anomaly_deg": 283.7984,
      "mean_motion_rev_day": 15.08832145
    }
  ]
}